PROBA-1                 
1 26958U 01049B   26060.52392399  .00004228  00000+0  27689-3 0  9990
2 26958  97.9626  65.3214 0057011 125.6904 234.9648 15.06974052327404
CUTE-1 (CO-55)          
1 27844U 03031E   26059.99311405  .00000385  00000+0  18585-3 0  9991
2 27844  98.6778  69.8999 0010391 135.3044 224.8974 14.24257525176272
CUBESAT XI-IV (CO-57)   
1 27848U 03031J   26060.48995895  .00000346  00000+0  17102-3 0  9993
2 27848  98.6807  70.1897 0010013 150.6547 209.5195 14.23554450176057
APRIZESAT 4             
1 35684U 09041D   26060.15741662  .00000917  00000+0  11633-3 0  9999
2 35684  98.1504 133.3036 0042394 313.1694  46.5979 14.83688585895348
APRIZESAT 3             
1 35686U 09041F   26060.34985877  .00002701  00000+0  23801-3 0  9993
2 35686  98.1874 208.5340 0063195  63.8870 296.8834 14.95856548900256
PROBA-2                 
1 36037U 09059B   26060.46665012  .00000362  00000+0  94979-4 0  9998
2 36037  98.2425 245.3148 0012051 251.7540 108.2346 14.54784094865864
APRIZESAT 5             
1 37792U 11044E   26060.37700557  .00001772  00000+0  23189-3 0  9998
2 37792  98.2400 350.4214 0052340 351.4816   8.5501 14.80824714782830
APRIZESAT 6             
1 37793U 11044F   26060.36267082  .00001111  00000+0  16397-3 0  9999
2 37793  98.2425 328.6428 0044579  71.4332  48.9813 14.76730821781236
PROBA-V                 
1 39159U 13021A   26060.51230118  .00000099  00000+0  61526-4 0  9990
2 39159  98.3494  44.4888 0005403  88.5364 271.6434 14.23571129665793
APRIZESAT 7             
1 39416U 13066A   26060.40499031  .00001853  00000+0  18985-3 0  9993
2 39416  97.7583  15.2770 0035116 206.5039 153.4385 14.91248823665162
APRIZESAT 8             
1 39425U 13066K   26060.44735682  .00001678  00000+0  18848-3 0  9995
2 39425  97.8105   9.5132 0044600 281.0379  78.5822 14.87393919663651
BUGSAT-1 (TITA)         
1 40014U 14033E   26060.51141891  .00008329  00000+0  45332-3 0  9995
2 40014  98.0450 146.8716 0028801 186.2416 173.8460 15.14370604639533
SAUDISAT 4              
1 40016U 14033G   26060.37877304  .00001036  00000+0  14333-3 0  9991
2 40016  97.7395 210.3537 0046162  65.1441 295.4560 14.79370880630135
APRIZESAT 9             
1 40018U 14033J   26060.35106652  .00001248  00000+0  19089-3 0  9990
2 40018  97.8867 196.3058 0066251 185.9036 174.1400 14.74050146627671
APRIZESAT 10            
1 40019U 14033K   26060.36685198  .00000913  00000+0  15137-3 0  9997
2 40019  97.9466 189.8496 0077681 257.8775 101.3721 14.70733691626406
TECHDEMOSAT-1 (TDS-1)   
1 40076U 14037H   26060.51473854  .00011495  00000+0  68534-3 0  9991
2 40076  98.3754  42.2503 0004547 275.7775  84.2934 15.11351505631952
TECHNOSAT               
1 42829U 17042E   26060.44573576  .00005046  00000+0  36601-3 0  9997
2 42829  97.4136 222.3380 0019441 101.6698 258.6711 15.04197649470509
FLYING LAPTOP           
1 42831U 17042G   26060.50884810  .00002169  00000+0  17634-3 0  9991
2 42831  97.4242 220.5483 0018226 122.3025 237.9968 15.00447709470301
HAWK-A                  
1 43765U 18099H   26060.13586810  .00008127  00000+0  34226-3 0  9995
2 43765  97.4077 113.8165 0034595 306.9684  52.8387 15.23065467396648
HAWK-B                  
1 43794U 18099AN  26060.09832453  .00007796  00000+0  34599-3 0  9993
2 43794  97.4129 113.4109 0031952 324.9204  34.9927 15.21379773396595
HAWK-C                  
1 43799U 18099AT  26060.14988005  .00010094  00000+0  38354-3 0  9997
2 43799  97.4054 114.2352 0040783 308.7261  51.0334 15.26213193397424
SALSAT                  
1 46495U 20068K   26060.48768708  .00011000  00000+0  40526-3 0  9997
2 46495  97.8843  57.1429 0008976 330.8256  29.2479 15.27983521298908
HAWK-2C                 
1 47502U 21006CT  26060.06096144  .00008420  00000+0  26530-3 0  9993
2 47502  97.2438 106.5557 0006024 216.6818 143.4013 15.33132346282926
HAWK-2A                 
1 47505U 21006CW  26060.12983316  .00011410  00000+0  35861-3 0  9999
2 47505  97.2482 107.2370 0005637 221.3488 138.7329 15.33126221282937
HAWK-2B                 
1 47508U 21006CZ  26060.06128978  .00008063  00000+0  25422-3 0  9992
2 47508  97.2356 105.6833 0006169 218.3339 141.7466 15.33123056282926
HAWK-3B                 
1 48931U 21059BE  26060.47386595  .00040360  00000+0  48375-3 0  9995
2 48931  97.6713 247.6815 0005483   9.5660 350.5700 15.60821772261007
HAWK-3C                 
1 48948U 21059BX  26060.47362512  .00039022  00000+0  46788-3 0  9995
2 48948  97.6865 253.1639 0005990  10.7008 349.4375 15.60815917261001
HAWK-3A                 
1 48957U 21059CG  26060.47345548  .00039192  00000+0  46997-3 0  9995
2 48957  97.6799 250.4595 0005593   9.3402 350.7957 15.60815193261006
HAWK-5C                 
1 52754U 22057Y   26060.38179541  .00024956  00000+0  49354-3 0  9994
2 52754  97.6434 213.5458 0005678 102.3294 257.8591 15.47089976209658
HAWK-5B                 
1 52756U 22057AA  26060.38166927  .00025007  00000+0  49448-3 0  9992
2 52756  97.6434 211.8855 0005663  97.2250 262.9643 15.47093303209654
HAWK-5A                 
1 52757U 22057AB  26060.38138492  .00025134  00000+0  49699-3 0  9998
2 52757  97.6437 212.7193 0006060  99.6143 260.5791 15.47089440209657
HAWK-6B                 
1 55324U 23011A   26059.94517945  .00006626  00000+0  29432-3 0  9994
2 55324  40.5125 262.8902 0003422 330.1370  29.9243 15.21765188171344
HAWK-6C                 
1 55326U 23011C   26059.94456945  .00006776  00000+0  30080-3 0  9995
2 55326  40.4815 259.7822 0003691 319.5416  40.5117 15.21757225171350
HAWK-6A                 
1 55327U 23011D   26059.87896313  .00006624  00000+0  29425-3 0  9998
2 55327  40.4973 261.7616 0003437 317.8051  42.2493 15.21760155171345
HAWK-7A                 
1 56191U 23054P   26060.49331255  .00007648  00000+0  29915-3 0  9995
2 56191  97.2852 310.5700 0004570  68.7106 291.4621 15.26102864160598
HAWK-7B                 
1 56193U 23054R   26060.23092265  .00007594  00000+0  29704-3 0  9990
2 56193  97.2873 308.5372 0004753  71.5699 288.6056 15.26104535160550
HAWK-7C                 
1 56200U 23054Y   26060.23073495  .00008819  00000+0  34486-3 0  9997
2 56200  97.2844 309.3416 0004229  74.9052 285.2654 15.26067563160559
